[
    {
        "CCSDS_OMM_VERS": "3.0",
        "COMMENT": "GENERATED VIA SPACE-TRACK.ORG API",
        "CREATION_DATE": "2025-03-02T18:08:23",
        "ORIGINATOR": "18 SPCS",
        "OBJECT_NAME": "BEIDOU 3M22",
        "OBJECT_ID": "2019-078B",
        "CENTER_NAME": "EARTH",
        "REF_FRAME": "TEME",
        "TIME_SYSTEM": "UTC",
        "MEAN_ELEMENT_THEORY": "SGP4",
        "EPOCH": "2025-03-02T05:36:13.943808",
        "MEAN_MOTION": "1.86227567",
        "ECCENTRICITY": "0.00051920",
        "INCLINATION": "54.3287",
        "RA_OF_ASC_NODE": "316.3501",
        "ARG_OF_PERICENTER": "20.4223",
        "MEAN_ANOMALY": "339.6555",
        "EPHEMERIS_TYPE": "0",
        "CLASSIFICATION_TYPE": "U",
        "NORAD_CAT_ID": "44794",
        "ELEMENT_SET_NO": "999",
        "REV_AT_EPOCH": "3586",
        "BSTAR": "0.00000000000000",
        "MEAN_MOTION_DOT": "-0.00000054",
        "MEAN_MOTION_DDOT": "0.0000000000000",
        "SEMIMAJOR_AXIS": "27906.532",
        "PERIOD": "773.247",
        "APOAPSIS": "21542.886",
        "PERIAPSIS": "21513.907",
        "OBJECT_TYPE": "PAYLOAD",
        "RCS_SIZE": "LARGE",
        "COUNTRY_CODE": "PRC",
        "LAUNCH_DATE": "2019-11-23",
        "SITE": "XSC",
        "DECAY_DATE": null,
        "FILE": "4657142",
        "GP_ID": "282087459",
        "TLE_LINE0": "0 BEIDOU 3M22",
        "TLE_LINE1": "1 44794U 19078B   25061.23349472 -.00000054  00000-0  00000-0 0  9991",
        "TLE_LINE2": "2 44794  54.3287 316.3501 0005192  20.4223 339.6555  1.86227567 35860"
    }
]